[{"OBJECT_NAME":"LEMUR-2-DELOITTE-1","OBJECT_ID":"2025-052BB","EPOCH":"2026-03-09T22:32:58.708896","MEAN_MOTION":14.9679712,"ECCENTRICITY":0.00030112,"INCLINATION":97.7035,"RA_OF_ASC_NODE":323.209,"ARG_OF_PERICENTER":78.3841,"MEAN_ANOMALY":281.7719,"EPHEMERIS_TYPE":0,"CLASSIFICATION_TYPE":"U","NORAD_CAT_ID":63259,"ELEMENT_SET_NO":999,"REV_AT_EPOCH":5384,"BSTAR":0.00044206323,"MEAN_MOTION_DOT":5.004e-5,"MEAN_MOTION_DDOT":0},{"OBJECT_NAME":"SENTINEL-1B","OBJECT_ID":"2016-025A","EPOCH":"2026-03-09T22:22:55.750080","MEAN_MOTION":14.98768491,"ECCENTRICITY":0.00163778,"INCLINATION":98.1047,"RA_OF_ASC_NODE":125.8491,"ARG_OF_PERICENTER":100.1359,"MEAN_ANOMALY":260.1711,"EPHEMERIS_TYPE":0,"CLASSIFICATION_TYPE":"U","NORAD_CAT_ID":41456,"ELEMENT_SET_NO":999,"REV_AT_EPOCH":52891,"BSTAR":0.00015358389,"MEAN_MOTION_DOT":1.79e-5,"MEAN_MOTION_DDOT":0}]
